[Satellite]
VERSION=1.1
NAME=AEROCUBE 8D
NICKNAME=AEROCUBE 8D
TLE1=1 41852U 16067E   17186.17272874  .00000595  00000-0  58151-4 0  9994
TLE2=2 41852  97.9496 264.3339 0008388 233.2483 126.7968 14.96209245 35186
